OBJECT_NAME,OBJECT_ID,EPOCH,MEAN_MOTION,ECCENTRICITY,INCLINATION,RA_OF_ASC_NODE,ARG_OF_PERICENTER,MEAN_ANOMALY,EPHEMERIS_TYPE,CLASSIFICATION_TYPE,NORAD_CAT_ID,ELEMENT_SET_NO,REV_AT_EPOCH,BSTAR,MEAN_MOTION_DOT,MEAN_MOTION_DDOT
ONEWEB-0367,2021-090Q,2026-06-05T01:00:31.190688,13.20799302,.0000886,87.9189,276.8607,126.2660,233.8556,0,U,49293,999,22822,.61535E-2,.2517E-4,0
ONEWEB-0368,2021-090R,2026-06-05T02:12:04.360896,13.20778332,.0001241,87.9170,276.8627,82.4065,277.7210,0,U,49294,999,22938,-.30583E-2,-.123E-4,0
ONEWEB-0369,2021-090S,2026-06-05T03:03:00.893952,13.19726921,.0001756,87.9158,307.3777,93.2719,266.8615,0,U,49295,999,22482,.10468E-3,.55E-6,0
ONEWEB-0370,2021-090T,2026-06-04T17:57:32.567040,13.20774500,.0002143,87.9202,276.9187,114.5539,245.5818,0,U,49296,999,22822,.94057E-4,.51E-6,0
ONEWEB-0371,2021-090U,2026-06-03T11:12:30.070944,13.19727326,.00017495,87.9165,307.7000,98.3258,261.8073,0,U,49297,999,22464,.7227665E-4,.42E-6,0
ONEWEB-0372,2021-090V,2026-06-05T00:59:09.923712,13.20770851,.0001923,87.9190,276.8625,99.3346,260.8005,0,U,49298,999,22823,.15395E-3,.76E-6,0
ONEWEB-0373,2021-090W,2026-06-05T01:35:44.213280,13.20770418,.0002064,87.9185,276.8579,101.1602,258.9763,0,U,49299,999,22942,.14664E-3,.73E-6,0
ONEWEB-0374,2021-090X,2026-06-05T02:12:39.384864,13.14502168,.0002393,87.8961,292.1081,89.2174,270.9230,0,U,49300,999,22597,-.5533E-3,-.192E-5,0
ONEWEB-0375,2021-090Y,2026-06-05T01:18:46.611360,13.20772400,.0002503,87.9190,276.8517,92.8564,267.2856,0,U,49301,999,22892,.22564E-3,.105E-5,0
ONEWEB-0376,2021-090Z,2026-06-03T11:10:13.689408,13.19724178,.00016467,87.9169,307.6998,93.4587,266.6734,0,U,49302,999,22464,.86892232E-4,.48E-6,0
ONEWEB-0377,2021-090AA,2026-06-05T00:59:35.396160,13.20771816,.0002175,87.9187,276.8562,99.6207,260.5173,0,U,49303,999,22891,.10112E-3,.54E-6,0
ONEWEB-0378,2021-090AB,2026-06-05T01:28:38.770176,13.20773605,.0002038,87.9183,276.8575,96.5144,263.6222,0,U,49304,999,22818,.14402E-3,.72E-6,0
ONEWEB-0379,2021-090AC,2026-06-05T02:05:47.700096,13.14501739,.0001944,87.8959,292.1196,94.6368,265.4983,0,U,49305,999,22597,-.40827E-3,-.139E-5,0
ONEWEB-0380,2021-090AD,2026-06-05T03:07:34.209984,13.19725232,.0002046,87.9160,307.3743,97.2105,262.9260,0,U,49306,999,22483,.67404E-4,.4E-6,0
ONEWEB-0381,2021-090AE,2026-06-05T00:54:32.315328,13.20773080,.0002089,87.9193,276.8604,90.2844,269.8529,0,U,49307,999,22822,.11674E-3,.6E-6,0
ONEWEB-0382,2021-090AF,2026-06-05T02:24:11.664864,13.20771961,.0002108,87.9192,276.8435,94.8283,265.3091,0,U,49308,999,22822,.8889E-5,.17E-6,0
ONEWEB-0383,2021-090AG,2026-06-05T01:56:38.820768,13.14504244,.0001889,87.8961,292.1122,92.9249,267.2096,0,U,49309,999,22600,-.12458E-3,-.33E-6,0
ONEWEB-0384,2021-090AH,2026-06-05T02:08:23.880192,13.20811764,.0002175,87.9189,276.8898,88.5911,271.5472,0,U,49310,999,22823,.77526E-4,.45E-6,0
ONEWEB-0385,2021-090AJ,2026-06-05T02:14:32.356320,13.20771495,.0002035,87.9196,276.8491,102.7542,257.3819,0,U,49311,999,22820,.54866E-4,.35E-6,0
ONEWEB-0386,2021-090AK,2026-06-04T17:33:19.573920,13.20772712,.000199,87.9205,276.9106,100.3473,259.7885,0,U,49312,999,22817,-.4663E-4,-.6E-7,0
ONEWEB-0387,2021-090AL,2026-06-05T02:16:57.772704,13.20772871,.0002345,87.9181,276.8644,99.7213,260.4186,0,U,49313,999,22822,-.16475E-3,-.54E-6,0
ONEWEB-0388,2021-090AM,2026-06-05T03:00:44.799264,13.19726718,.0001918,87.9160,307.3735,91.8408,268.2944,0,U,49314,999,22482,.953E-4,.51E-6,0
ONEWEB-0389,2021-132A,2026-06-04T23:21:05.998176,13.17648176,.0002188,87.9143,8.2983,86.3360,273.8022,0,U,50469,999,21647,.48573E-4,.32E-6,0
ONEWEB-0390,2021-132B,2026-06-04T23:23:31.754112,13.17647520,.0001818,87.9141,8.2984,95.1746,264.9593,0,U,50470,999,21647,.25884E-3,.113E-5,0
ONEWEB-0391,2021-132C,2026-06-04T23:25:57.641376,13.17648085,.0002622,87.9144,8.3080,94.8052,265.3379,0,U,50471,999,21647,.58876E-4,.36E-6,0
ONEWEB-0392,2021-132D,2026-06-05T00:09:42.901056,13.17650277,.0002258,87.9149,8.2693,85.8069,274.3321,0,U,50472,999,21651,.40921E-4,.29E-6,0
ONEWEB-0393,2021-132E,2026-06-04T23:34:28.878816,13.17649658,.0002011,87.9141,8.2923,86.8092,273.3270,0,U,50473,999,21650,-.94158E-4,-.24E-6,0
ONEWEB-0394,2021-132F,2026-06-05T00:48:34.386048,13.18686730,.0002059,87.9166,337.8603,85.8803,274.2564,0,U,50474,999,21999,-.70981E-3,-.267E-5,0
ONEWEB-0395,2021-132G,2026-06-05T00:51:37.768320,13.11415770,.0001946,87.8896,23.4857,96.7089,263.4261,0,U,50475,999,21412,-.12136E-2,-.417E-5,0
ONEWEB-0396,2021-132H,2026-06-05T00:38:51.400320,13.18688198,.0001936,87.9170,337.8750,89.0695,271.0658,0,U,50476,999,22003,-.71473E-4,-.15E-6,0
ONEWEB-0397,2021-132J,2026-06-05T04:39:14.491008,13.18685216,.00019,87.9165,337.8415,85.4766,274.6583,0,U,50477,999,22003,-.2725E-3,-.95E-6,0
