[
  {
    "name": "ONEWEB-0367",
    "noradId": "49293",
    "line1": "1 49293U 21090Q   26156.04202767  .00002517  00000+0  61535-2 0  9993",
    "line2": "2 49293  87.9189 276.8607 0000886 126.2660 233.8556 13.20799302228226"
  },
  {
    "name": "ONEWEB-0368",
    "noradId": "49294",
    "line1": "1 49294U 21090R   26156.09171714 -.00001230  00000+0 -30583-2 0  9998",
    "line2": "2 49294  87.9170 276.8627 0001241  82.4065 277.7210 13.20778332229389"
  },
  {
    "name": "ONEWEB-0369",
    "noradId": "49295",
    "line1": "1 49295U 21090S   26156.12709368  .00000055  00000+0  10468-3 0  9998",
    "line2": "2 49295  87.9158 307.3777 0001756  93.2719 266.8615 13.19726921224826"
  },
  {
    "name": "ONEWEB-0370",
    "noradId": "49296",
    "line1": "1 49296U 21090T   26155.74829360  .00000051  00000+0  94057-4 0  9994",
    "line2": "2 49296  87.9202 276.9187 0002143 114.5539 245.5818 13.20774500228226"
  },
  {
    "name": "ONEWEB-0371",
    "noradId": "49297",
    "line1": "1 49297U 21090U   26154.46701471  .00000042  00000+0  72277-4 0  9995",
    "line2": "2 49297  87.9165 307.7000 0001749  98.3258 261.8073 13.19727326224648"
  },
  {
    "name": "ONEWEB-0372",
    "noradId": "49298",
    "line1": "1 49298U 21090V   26156.04108708  .00000076  00000+0  15395-3 0  9990",
    "line2": "2 49298  87.9190 276.8625 0001923  99.3346 260.8005 13.20770851228235"
  },
  {
    "name": "ONEWEB-0373",
    "noradId": "49299",
    "line1": "1 49299U 21090W   26156.06648395  .00000073  00000+0  14664-3 0  9999",
    "line2": "2 49299  87.9185 276.8579 0002064 101.1602 258.9763 13.20770418229422"
  },
  {
    "name": "ONEWEB-0374",
    "noradId": "49300",
    "line1": "1 49300U 21090X   26156.09212251 -.00000192  00000+0 -55330-3 0  9992",
    "line2": "2 49300  87.8961 292.1081 0002393  89.2174 270.9230 13.14502168225977"
  },
  {
    "name": "ONEWEB-0375",
    "noradId": "49301",
    "line1": "1 49301U 21090Y   26156.05470615  .00000105  00000+0  22564-3 0  9994",
    "line2": "2 49301  87.9190 276.8517 0002503  92.8564 267.2856 13.20772400228928"
  },
  {
    "name": "ONEWEB-0376",
    "noradId": "49302",
    "line1": "1 49302U 21090Z   26154.46543622  .00000048  00000+0  86892-4 0  9998",
    "line2": "2 49302  87.9169 307.6998 0001646  93.4587 266.6734 13.19724178224640"
  },
  {
    "name": "ONEWEB-0377",
    "noradId": "49303",
    "line1": "1 49303U 21090AA  26156.04138190  .00000054  00000+0  10112-3 0  9993",
    "line2": "2 49303  87.9187 276.8562 0002175  99.6207 260.5173 13.20771816228917"
  },
  {
    "name": "ONEWEB-0378",
    "noradId": "49304",
    "line1": "1 49304U 21090AB  26156.06155984  .00000072  00000+0  14402-3 0  9992",
    "line2": "2 49304  87.9183 276.8575 0002038  96.5144 263.6222 13.20773605228188"
  },
  {
    "name": "ONEWEB-0379",
    "noradId": "49305",
    "line1": "1 49305U 21090AC  26156.08735764 -.00000139  00000+0 -40827-3 0  9991",
    "line2": "2 49305  87.8959 292.1196 0001944  94.6368 265.4983 13.14501739225979"
  },
  {
    "name": "ONEWEB-0380",
    "noradId": "49306",
    "line1": "1 49306U 21090AD  26156.13025706  .00000040  00000+0  67404-4 0  9996",
    "line2": "2 49306  87.9160 307.3743 0002046  97.2105 262.9260 13.19725232224839"
  },
  {
    "name": "ONEWEB-0381",
    "noradId": "49307",
    "line1": "1 49307U 21090AE  26156.03787402  .00000060  00000+0  11674-3 0  9993",
    "line2": "2 49307  87.9193 276.8604 0002089  90.2844 269.8529 13.20773080228229"
  },
  {
    "name": "ONEWEB-0382",
    "noradId": "49308",
    "line1": "1 49308U 21090AF  26156.10013501  .00000017  00000+0  88890-5 0  9992",
    "line2": "2 49308  87.9192 276.8435 0002108  94.8283 265.3091 13.20771961228221"
  },
  {
    "name": "ONEWEB-0383",
    "noradId": "49309",
    "line1": "1 49309U 21090AG  26156.08100487 -.00000033  00000+0 -12458-3 0  9995",
    "line2": "2 49309  87.8961 292.1122 0001889  92.9249 267.2096 13.14504244226006"
  },
  {
    "name": "ONEWEB-0384",
    "noradId": "49310",
    "line1": "1 49310U 21090AH  26156.08916528  .00000045  00000+0  77526-4 0  9997",
    "line2": "2 49310  87.9189 276.8898 0002175  88.5911 271.5472 13.20811764228234"
  },
  {
    "name": "ONEWEB-0385",
    "noradId": "49311",
    "line1": "1 49311U 21090AJ  26156.09343005  .00000035  00000+0  54866-4 0  9994",
    "line2": "2 49311  87.9196 276.8491 0002035 102.7542 257.3819 13.20771495228206"
  },
  {
    "name": "ONEWEB-0386",
    "noradId": "49312",
    "line1": "1 49312U 21090AK  26155.73147655 -.00000006  00000+0 -46630-4 0  9998",
    "line2": "2 49312  87.9205 276.9106 0001990 100.3473 259.7885 13.20772712228176"
  },
  {
    "name": "ONEWEB-0387",
    "noradId": "49313",
    "line1": "1 49313U 21090AL  26156.09511311 -.00000054  00000+0 -16475-3 0  9999",
    "line2": "2 49313  87.9181 276.8644 0002345  99.7213 260.4186 13.20772871228229"
  },
  {
    "name": "ONEWEB-0388",
    "noradId": "49314",
    "line1": "1 49314U 21090AM  26156.12551851  .00000051  00000+0  95300-4 0  9997",
    "line2": "2 49314  87.9160 307.3735 0001918  91.8408 268.2944 13.19726718224829"
  },
  {
    "name": "ONEWEB-0389",
    "noradId": "50469",
    "line1": "1 50469U 21132A   26155.97298609  .00000032  00000+0  48573-4 0  9997",
    "line2": "2 50469  87.9143   8.2983 0002188  86.3360 273.8022 13.17648176216471"
  },
  {
    "name": "ONEWEB-0390",
    "noradId": "50470",
    "line1": "1 50470U 21132B   26155.97467308  .00000113  00000+0  25884-3 0  9992",
    "line2": "2 50470  87.9141   8.2984 0001818  95.1746 264.9593 13.17647520216473"
  },
  {
    "name": "ONEWEB-0391",
    "noradId": "50471",
    "line1": "1 50471U 21132C   26155.97636159  .00000036  00000+0  58876-4 0  9997",
    "line2": "2 50471  87.9144   8.3080 0002622  94.8052 265.3379 13.17648085216479"
  },
  {
    "name": "ONEWEB-0392",
    "noradId": "50472",
    "line1": "1 50472U 21132D   26156.00674654  .00000029  00000+0  40921-4 0  9999",
    "line2": "2 50472  87.9149   8.2693 0002258  85.8069 274.3321 13.17650277216515"
  },
  {
    "name": "ONEWEB-0393",
    "noradId": "50473",
    "line1": "1 50473U 21132E   26155.98227869 -.00000024  00000+0 -94158-4 0  9996",
    "line2": "2 50473  87.9141   8.2923 0002011  86.8092 273.3270 13.17649658216500"
  },
  {
    "name": "ONEWEB-0394",
    "noradId": "50474",
    "line1": "1 50474U 21132F   26156.03373132 -.00000267  00000+0 -70981-3 0  9995",
    "line2": "2 50474  87.9166 337.8603 0002059  85.8803 274.2564 13.18686730219990"
  },
  {
    "name": "ONEWEB-0395",
    "noradId": "50475",
    "line1": "1 50475U 21132G   26156.03585380 -.00000417  00000+0 -12136-2 0  9990",
    "line2": "2 50475  87.8896  23.4857 0001946  96.7089 263.4261 13.11415770214121"
  },
  {
    "name": "ONEWEB-0396",
    "noradId": "50476",
    "line1": "1 50476U 21132H   26156.02698380 -.00000015  00000+0 -71473-4 0  9990",
    "line2": "2 50476  87.9170 337.8750 0001936  89.0695 271.0658 13.18688198220034"
  },
  {
    "name": "ONEWEB-0397",
    "noradId": "50477",
    "line1": "1 50477U 21132J   26156.19391772 -.00000095  00000+0 -27250-3 0  9995",
    "line2": "2 50477  87.9165 337.8415 0001900  85.4766 274.6583 13.18685216220031"
  }
]